[{"OBJECT_NAME":"STARLINK-33783","OBJECT_ID":"2025-087R","EPOCH":"2026-03-09T17:37:33.595968","MEAN_MOTION":15.301996,"ECCENTRICITY":9.858e-5,"INCLINATION":53.1606,"RA_OF_ASC_NODE":219.5464,"ARG_OF_PERICENTER":98.3215,"MEAN_ANOMALY":261.7898,"EPHEMERIS_TYPE":0,"CLASSIFICATION_TYPE":"U","NORAD_CAT_ID":63712,"ELEMENT_SET_NO":999,"REV_AT_EPOCH":4920,"BSTAR":0.00060334206,"MEAN_MOTION_DOT":0.00017552,"MEAN_MOTION_DDOT":0},{"OBJECT_NAME":"COSMOS 2251 DEB","OBJECT_ID":"1993-036BN","EPOCH":"2026-03-09T17:54:27.582912","MEAN_MOTION":15.31852549,"ECCENTRICITY":0.0043021,"INCLINATION":74.0291,"RA_OF_ASC_NODE":318.0178,"ARG_OF_PERICENTER":323.0874,"MEAN_ANOMALY":36.7369,"EPHEMERIS_TYPE":0,"CLASSIFICATION_TYPE":"U","NORAD_CAT_ID":33821,"ELEMENT_SET_NO":999,"REV_AT_EPOCH":76330,"BSTAR":0.0011195846,"MEAN_MOTION_DOT":0.00035571,"MEAN_MOTION_DDOT":0}]
